[Satellite]
VERSION=1.1
NAME=CYGFM02
NICKNAME=CYGFM02
TLE1=1 41886U 16078C   18020.57954789  .00001742  00000-0  94879-4 0  9999
TLE2=2 41886  34.9589 115.5852 0014583 121.8336 238.3796 15.14173589 60816
